{"type": "FeatureCollection", "features": [ {"type": "Feature", "properties": {"norad_id": 31535, "name": "FENGYUN 1C DEB", "group": "fengyun-1c-debris", "lat": -66.46852403230622, "lon": -133.24215643691517, "alt_km": 865.0423955675287, "timestamp": "2025-12-24T20:42:21.309824+00:00", "meta": {"OBJECT_NAME": "FENGYUN 1C DEB", "OBJECT_ID": "1999-025BYA", "EPOCH": "2025-12-08T20:01:31.264032", "MEAN_MOTION": 14.28309987, "ECCENTRICITY": 0.00876599, "INCLINATION": 98.0348, "RA_OF_ASC_NODE": 193.0693, "ARG_OF_PERICENTER": 174.5726, "MEAN_ANOMALY": 185.6428, "EPHEMERIS_TYPE": 0, "CLASSIFICATION_TYPE": "U", "NORAD_CAT_ID": 31535, "ELEMENT_SET_NO": 999, "REV_AT_EPOCH": 71875, "BSTAR": 0.0012494375, "MEAN_MOTION_DOT": 3.212e-05, "MEAN_MOTION_DDOT": 0}, "tle": {"line1": "1 31535U 99025BYA 25342.83438963  .00003212  00000+0  12494-2 0  9991", "line2": "2 31535  98.0348 193.0693 0087659 174.5726 185.6428 14.28309987718752"}}, "geometry": {"type": "Point", "coordinates": [-133.24215643691517, -66.46852403230622]}}, {"type": "Feature", "properties": {"norad_id": 31536, "name": "FENGYUN 1C DEB", "group": "fengyun-1c-debris", "lat": -16.791527770038158, "lon": 83.56500488716553, "alt_km": 708.1253374918178, "timestamp": "2025-12-24T20:42:21.309834+00:00", "meta": {"OBJECT_NAME": "FENGYUN 1C DEB", "OBJECT_ID": "1999-025BYB", "EPOCH": "2025-12-22T16:38:59.021952", "MEAN_MOTION": 14.54434146, "ECCENTRICITY": 0.02945648, "INCLINATION": 98.2371, "RA_OF_ASC_NODE": 263.9312, "ARG_OF_PERICENTER": 114.0299, "MEAN_ANOMALY": 249.2024, "EPHEMERIS_TYPE": 0, "CLASSIFICATION_TYPE": "U", "NORAD_CAT_ID": 31536, "ELEMENT_SET_NO": 999, "REV_AT_EPOCH": 96402, "BSTAR": 0.00085666971, "MEAN_MOTION_DOT": 6.488e-05, "MEAN_MOTION_DDOT": 0}, "tle": {"line1": "1 31536U 99025BYB 25356.69373868  .00006488  00000+0  85667-3 0  9994", "line2": "2 31536  98.2371 263.9312 0294564 114.0299 249.2024 14.54434146964022"}}, "geometry": {"type": "Point", "coordinates": [83.56500488716553, -16.791527770038158]}}, {"type": "Feature", "properties": {"norad_id": 31537, "name": "FENGYUN 1C DEB", "group": "fengyun-1c-debris", "lat": 18.707951128810837, "lon": -24.16103784825085, "alt_km": 976.5271963636224, "timestamp": "2025-12-24T20:42:21.309846+00:00", "meta": {"OBJECT_NAME": "FENGYUN 1C DEB", "OBJECT_ID": "1999-025BYC", "EPOCH": "2025-12-22T15:30:50.364864", "MEAN_MOTION": 14.20468164, "ECCENTRICITY": 0.03487105, "INCLINATION": 99.2934, "RA_OF_ASC_NODE": 150.3269, "ARG_OF_PERICENTER": 296.2481, "MEAN_ANOMALY": 60.3246, "EPHEMERIS_TYPE": 0, "CLASSIFICATION_TYPE": "U", "NORAD_CAT_ID": 31537, "ELEMENT_SET_NO": 999, "REV_AT_EPOCH": 93422, "BSTAR": 0.0026080635, "MEAN_MOTION_DOT": 0.00010318, "MEAN_MOTION_DDOT": 0}, "tle": {"line1": "1 31537U 99025BYC 25356.64641626  .00010318  00000+0  26081-2 0  9991", "line2": "2 31537  99.2934 150.3269 0348710 296.2481  60.3246 14.20468164934225"}}, "geometry": {"type": "Point", "coordinates": [-24.16103784825085, 18.707951128810837]}}, {"type": "Feature", "properties": {"norad_id": 31540, "name": "FENGYUN 1C DEB", "group": "fengyun-1c-debris", "lat": -42.9183624967066, "lon": 168.0598144419198, "alt_km": 605.250946314939, "timestamp": "2025-12-24T20:42:21.309860+00:00", "meta": {"OBJECT_NAME": "FENGYUN 1C DEB", "OBJECT_ID": "1999-025BYF", "EPOCH": "2025-12-23T05:34:33.525408", "MEAN_MOTION": 14.6550063, "ECCENTRICITY": 0.01764738, "INCLINATION": 99.0576, "RA_OF_ASC_NODE": 157.7332, "ARG_OF_PERICENTER": 268.7753, "MEAN_ANOMALY": 89.3225, "EPHEMERIS_TYPE": 0, "CLASSIFICATION_TYPE": "U", "NORAD_CAT_ID": 31540, "ELEMENT_SET_NO": 999, "REV_AT_EPOCH": 98455, "BSTAR": 0.0010217432, "MEAN_MOTION_DOT": 6.907e-05, "MEAN_MOTION_DDOT": 0}, "tle": {"line1": "1 31540U 99025BYF 25357.23233247  .00006907  00000+0  10217-2 0  9990", "line2": "2 31540  99.0576 157.7332 0176473 268.7753  89.3225 14.65500630984555"}}, "geometry": {"type": "Point", "coordinates": [168.0598144419198, -42.9183624967066]}}, {"type": "Feature", "properties": {"norad_id": 31541, "name": "FENGYUN 1C DEB", "group": "fengyun-1c-debris", "lat": 28.493314614150968, "lon": 137.53282719482064, "alt_km": 717.8245205458625, "timestamp": "2025-12-24T20:42:21.309870+00:00", "meta": {"OBJECT_NAME": "FENGYUN 1C DEB", "OBJECT_ID": "1999-025BYG", "EPOCH": "2025-12-24T04:13:32.260512", "MEAN_MOTION": 14.69005177, "ECCENTRICITY": 0.00784616, "INCLINATION": 98.9802, "RA_OF_ASC_NODE": 141.703, "ARG_OF_PERICENTER": 204.8536, "MEAN_ANOMALY": 154.8879, "EPHEMERIS_TYPE": 0, "CLASSIFICATION_TYPE": "U", "NORAD_CAT_ID": 31541, "ELEMENT_SET_NO": 999, "REV_AT_EPOCH": 98591, "BSTAR": 0.0015098651, "MEAN_MOTION_DOT": 9.226e-05, "MEAN_MOTION_DDOT": 0}, "tle": {"line1": "1 31541U 99025BYG 25358.17606783  .00009226  00000+0  15099-2 0  9994", "line2": "2 31541  98.9802 141.7030 0078461 204.8536 154.8879 14.69005177985916"}}, "geometry": {"type": "Point", "coordinates": [137.53282719482064, 28.493314614150968]}}, {"type": "Feature", "properties": {"norad_id": 31542, "name": "FENGYUN 1C DEB", "group": "fengyun-1c-debris", "lat": 52.32712233189197, "lon": 41.28310270667004, "alt_km": 827.5484956594491, "timestamp": "2025-12-24T20:42:21.309880+00:00", "meta": {"OBJECT_NAME": "FENGYUN 1C DEB", "OBJECT_ID": "1999-025BYH", "EPOCH": "2025-12-23T09:00:46.396800", "MEAN_MOTION": 14.22851184, "ECCENTRICITY": 0.00478944, "INCLINATION": 98.7301, "RA_OF_ASC_NODE": 51.288, "ARG_OF_PERICENTER": 176.9296, "MEAN_ANOMALY": 183.2185, "EPHEMERIS_TYPE": 0, "CLASSIFICATION_TYPE": "U", "NORAD_CAT_ID": 31542, "ELEMENT_SET_NO": 999, "REV_AT_EPOCH": 96091, "BSTAR": 0.0012852727, "MEAN_MOTION_DOT": 2.877e-05, "MEAN_MOTION_DDOT": 0}, "tle": {"line1": "1 31542U 99025BYH 25357.37553700  .00002877  00000+0  12853-2 0  9996", "line2": "2 31542  98.7301  51.2880 0047894 176.9296 183.2185 14.22851184960910"}}, "geometry": {"type": "Point", "coordinates": [41.28310270667004, 52.32712233189197]}}, {"type": "Feature", "properties": {"norad_id": 31544, "name": "FENGYUN 1C DEB", "group": "fengyun-1c-debris", "lat": 44.785683853106015, "lon": -121.14183668734705, "alt_km": 844.4106538914712, "timestamp": "2025-12-24T20:42:21.309890+00:00", "meta": {"OBJECT_NAME": "FENGYUN 1C DEB", "OBJECT_ID": "1999-025BYK", "EPOCH": "2025-12-22T10:20:35.081376", "MEAN_MOTION": 14.14359975, "ECCENTRICITY": 0.00322241, "INCLINATION": 98.8282, "RA_OF_ASC_NODE": 47.5818, "ARG_OF_PERICENTER": 240.9868, "MEAN_ANOMALY": 118.8075, "EPHEMERIS_TYPE": 0, "CLASSIFICATION_TYPE": "U", "NORAD_CAT_ID": 31544, "ELEMENT_SET_NO": 999, "REV_AT_EPOCH": 95894, "BSTAR": 0.0006556952, "MEAN_MOTION_DOT": 1.216e-05, "MEAN_MOTION_DDOT": 0}, "tle": {"line1": "1 31544U 99025BYK 25356.43096159  .00001216  00000+0  65570-3 0  9995", "line2": "2 31544  98.8282  47.5818 0032224 240.9868 118.8075 14.14359975958942"}}, "geometry": {"type": "Point", "coordinates": [-121.14183668734705, 44.785683853106015]}}, {"type": "Feature", "properties": {"norad_id": 31546, "name": "FENGYUN 1C DEB", "group": "fengyun-1c-debris", "lat": -66.96343971939424, "lon": -132.5075190611967, "alt_km": 942.9393479568726, "timestamp": "2025-12-24T20:42:21.309899+00:00", "meta": {"OBJECT_NAME": "FENGYUN 1C DEB", "OBJECT_ID": "1999-025BYM", "EPOCH": "2025-12-19T10:24:07.291008", "MEAN_MOTION": 14.13171121, "ECCENTRICITY": 0.0145952, "INCLINATION": 98.2438, "RA_OF_ASC_NODE": 62.4217, "ARG_OF_PERICENTER": 117.7512, "MEAN_ANOMALY": 243.855, "EPHEMERIS_TYPE": 0, "CLASSIFICATION_TYPE": "U", "NORAD_CAT_ID": 31546, "ELEMENT_SET_NO": 999, "REV_AT_EPOCH": 94883, "BSTAR": 0.0011276, "MEAN_MOTION_DOT": 2.297e-05, "MEAN_MOTION_DDOT": 0}, "tle": {"line1": "1 31546U 99025BYM 25353.43341772  .00002297  00000+0  11276-2 0  9991", "line2": "2 31546  98.2438  62.4217 0145952 117.7512 243.8550 14.13171121948838"}}, "geometry": {"type": "Point", "coordinates": [-132.5075190611967, -66.96343971939424]}}, {"type": "Feature", "properties": {"norad_id": 31547, "name": "FENGYUN 1C DEB", "group": "fengyun-1c-debris", "lat": 80.05241510558547, "lon": -71.13986073289315, "alt_km": 829.1320522260303, "timestamp": "2025-12-24T20:42:21.309909+00:00", "meta": {"OBJECT_NAME": "FENGYUN 1C DEB", "OBJECT_ID": "1999-025BYN", "EPOCH": "2025-12-23T20:38:21.518592", "MEAN_MOTION": 14.23194387, "ECCENTRICITY": 0.0054564, "INCLINATION": 99.0859, "RA_OF_ASC_NODE": 41.9836, "ARG_OF_PERICENTER": 221.2814, "MEAN_ANOMALY": 138.4231, "EPHEMERIS_TYPE": 0, "CLASSIFICATION_TYPE": "U", "NORAD_CAT_ID": 31547, "ELEMENT_SET_NO": 999, "REV_AT_EPOCH": 64175, "BSTAR": 0.0013187, "MEAN_MOTION_DOT": 2.981e-05, "MEAN_MOTION_DDOT": 0}, "tle": {"line1": "1 31547U 99025BYN 25357.85997128  .00002981  00000+0  13187-2 0  9997", "line2": "2 31547  99.0859  41.9836 0054564 221.2814 138.4231 14.23194387641754"}}, "geometry": {"type": "Point", "coordinates": [-71.13986073289315, 80.05241510558547]}}, {"type": "Feature", "properties": {"norad_id": 31550, "name": "FENGYUN 1C DEB", "group": "fengyun-1c-debris", "lat": -62.445398565090315, "lon": 14.247017789047236, "alt_km": 695.5899660365985, "timestamp": "2025-12-24T20:42:21.309939+00:00", "meta": {"OBJECT_NAME": "FENGYUN 1C DEB", "OBJECT_ID": "1999-025BYR", "EPOCH": "2025-12-19T17:37:00.408000", "MEAN_MOTION": 14.40245383, "ECCENTRICITY": 0.01900387, "INCLINATION": 98.3108, "RA_OF_ASC_NODE": 352.9958, "ARG_OF_PERICENTER": 251.6131, "MEAN_ANOMALY": 106.4311, "EPHEMERIS_TYPE": 0, "CLASSIFICATION_TYPE": "U", "NORAD_CAT_ID": 31550, "ELEMENT_SET_NO": 999, "REV_AT_EPOCH": 65555, "BSTAR": 0.00046139834, "MEAN_MOTION_DOT": 1.756e-05, "MEAN_MOTION_DDOT": 0}, "tle": {"line1": "1 31550U 99025BYR 25353.73403250  .00001756  00000+0  46140-3 0  9997", "line2": "2 31550  98.3108 352.9958 0190038 251.6131 106.4311 14.40245383655552"}}, "geometry": {"type": "Point", "coordinates": [14.247017789047236, -62.445398565090315]}}]}